{
  "type": "FeatureCollection",
  "features": [
    {
      "type": "Feature",
      "properties": {
        "norad_id": 40938,
        "name": "BEIDOU-3S IGSO-2S (C56)",
        "group": "beidou",
        "lat": 46.987195634520944,
        "lon": -32.945612287232436,
        "alt_km": 35887.94990952612,
        "timestamp": "2025-12-24T09:46:31.269387+00:00",
        "meta_object_name": "BEIDOU-3S IGSO-2S (C56)",
        "meta_object_id": "2015-053A",
        "meta_epoch": "2025-12-23T17:00:29.513952",
        "meta_mean_motion": 1.00267867,
        "meta_eccentricity": 0.00606419,
        "meta_inclination": 49.4936,
        "meta_ra_of_asc_node": 260.877,
        "meta_arg_of_pericenter": 188.6586,
        "meta_mean_anomaly": 353.8857,
        "meta_ephemeris_type": 0,
        "meta_classification_type": "U",
        "meta_norad_cat_id": 40938,
        "meta_element_set_no": 999,
        "meta_rev_at_epoch": 3759,
        "meta_bstar": 0,
        "meta_mean_motion_dot": -1.09e-06,
        "meta_mean_motion_ddot": 0,
        "tle_line1": "1 40938U 15053A   25357.70867493 -.00000109  00000+0  00000+0 0  9993",
        "tle_line2": "2 40938  49.4936 260.8770 0060641 188.6586 353.8857  1.00267867 37590"
      },
      "geometry": {
        "type": "Point",
        "coordinates": [
          -32.945612287232436,
          46.987195634520944
        ]
      }
    },
    {
      "type": "Feature",
      "properties": {
        "norad_id": 41434,
        "name": "BEIDOU-2 IGSO-6 (C13)",
        "group": "beidou",
        "lat": -52.160874794038186,
        "lon": -8.261402514937041,
        "alt_km": 35671.734201651976,
        "timestamp": "2025-12-24T09:46:31.269399+00:00",
        "meta_object_name": "BEIDOU-2 IGSO-6 (C13)",
        "meta_object_id": "2016-021A",
        "meta_epoch": "2025-12-18T14:33:38.837664",
        "meta_mean_motion": 1.00292299,
        "meta_eccentricity": 0.00610054,
        "meta_inclination": 59.9732,
        "meta_ra_of_asc_node": 39.8392,
        "meta_arg_of_pericenter": 230.2031,
        "meta_mean_anomaly": 129.1398,
        "meta_ephemeris_type": 0,
        "meta_classification_type": "U",
        "meta_norad_cat_id": 41434,
        "meta_element_set_no": 999,
        "meta_rev_at_epoch": 3566,
        "meta_bstar": 0,
        "meta_mean_motion_dot": -1.41e-06,
        "meta_mean_motion_ddot": 0,
        "tle_line1": "1 41434U 16021A   25352.60669951 -.00000141  00000+0  00000+0 0  9990",
        "tle_line2": "2 41434  59.9732  39.8392 0061005 230.2031 129.1398  1.00292299 35667"
      },
      "geometry": {
        "type": "Point",
        "coordinates": [
          -8.261402514937041,
          -52.160874794038186
        ]
      }
    },
    {
      "type": "Feature",
      "properties": {
        "norad_id": 41586,
        "name": "BEIDOU-2 G7 (C03)",
        "group": "beidou",
        "lat": -1.7518576916919317,
        "lon": -9.808847559849427,
        "alt_km": 35782.884202715075,
        "timestamp": "2025-12-24T09:46:31.269412+00:00",
        "meta_object_name": "BEIDOU-2 G7 (C03)",
        "meta_object_id": "2016-037A",
        "meta_epoch": "2025-12-23T23:55:49.888416",
        "meta_mean_motion": 1.00269463,
        "meta_eccentricity": 0.0005208,
        "meta_inclination": 1.7827,
        "meta_ra_of_asc_node": 67.8836,
        "meta_arg_of_pericenter": 1.2708,
        "meta_mean_anomaly": 133.0214,
        "meta_ephemeris_type": 0,
        "meta_classification_type": "U",
        "meta_norad_cat_id": 41586,
        "meta_element_set_no": 999,
        "meta_rev_at_epoch": 513,
        "meta_bstar": 0,
        "meta_mean_motion_dot": -3.33e-06,
        "meta_mean_motion_ddot": 0,
        "tle_line1": "1 41586U 16037A   25357.99710519 -.00000333  00000+0  00000+0 0  9992",
        "tle_line2": "2 41586   1.7827  67.8836 0005208   1.2708 133.0214  1.00269463  5136"
      },
      "geometry": {
        "type": "Point",
        "coordinates": [
          -9.808847559849427,
          -1.7518576916919317
        ]
      }
    },
    {
      "type": "Feature",
      "properties": {
        "norad_id": 43001,
        "name": "BEIDOU-3 M1 (C19)",
        "group": "beidou",
        "lat": -28.964818486055925,
        "lon": -89.68711804535009,
        "alt_km": 21530.257169322518,
        "timestamp": "2025-12-24T09:46:31.269424+00:00",
        "meta_object_name": "BEIDOU-3 M1 (C19)",
        "meta_object_id": "2017-069A",
        "meta_epoch": "2025-12-23T13:10:09.359616",
        "meta_mean_motion": 1.86231189,
        "meta_eccentricity": 0.0009766,
        "meta_inclination": 56.5355,
        "meta_ra_of_asc_node": 68.8772,
        "meta_arg_of_pericenter": 302.2973,
        "meta_mean_anomaly": 57.6619,
        "meta_ephemeris_type": 0,
        "meta_classification_type": "U",
        "meta_norad_cat_id": 43001,
        "meta_element_set_no": 999,
        "meta_rev_at_epoch": 5533,
        "meta_bstar": 0,
        "meta_mean_motion_dot": -2.4e-07,
        "meta_mean_motion_ddot": 0,
        "tle_line1": "1 43001U 17069A   25357.54871944 -.00000024  00000+0  00000+0 0  9990",
        "tle_line2": "2 43001  56.5355  68.8772 0009766 302.2973  57.6619  1.86231189 55330"
      },
      "geometry": {
        "type": "Point",
        "coordinates": [
          -89.68711804535009,
          -28.964818486055925
        ]
      }
    },
    {
      "type": "Feature",
      "properties": {
        "norad_id": 43002,
        "name": "BEIDOU-3 M2 (C20)",
        "group": "beidou",
        "lat": -54.3483729707918,
        "lon": -44.03713565124781,
        "alt_km": 21527.790880404256,
        "timestamp": "2025-12-24T09:46:31.269435+00:00",
        "meta_object_name": "BEIDOU-3 M2 (C20)",
        "meta_object_id": "2017-069B",
        "meta_epoch": "2025-12-22T09:54:58.962816",
        "meta_mean_motion": 1.86231087,
        "meta_eccentricity": 0.00067293,
        "meta_inclination": 56.5339,
        "meta_ra_of_asc_node": 68.9503,
        "meta_arg_of_pericenter": 327.7398,
        "meta_mean_anomaly": 32.2697,
        "meta_ephemeris_type": 0,
        "meta_classification_type": "U",
        "meta_norad_cat_id": 43002,
        "meta_element_set_no": 999,
        "meta_rev_at_epoch": 5530,
        "meta_bstar": 0,
        "meta_mean_motion_dot": -2.8e-07,
        "meta_mean_motion_ddot": 0,
        "tle_line1": "1 43002U 17069B   25356.41318244 -.00000028  00000+0  00000+0 0  9999",
        "tle_line2": "2 43002  56.5339  68.9503 0006729 327.7398  32.2697  1.86231087 55304"
      },
      "geometry": {
        "type": "Point",
        "coordinates": [
          -44.03713565124781,
          -54.3483729707918
        ]
      }
    },
    {
      "type": "Feature",
      "properties": {
        "norad_id": 43107,
        "name": "BEIDOU-3 M7 (C27)",
        "group": "beidou",
        "lat": 49.6465163168482,
        "lon": 5.485822822731438,
        "alt_km": 21513.757292837166,
        "timestamp": "2025-12-24T09:46:31.269446+00:00",
        "meta_object_name": "BEIDOU-3 M7 (C27)",
        "meta_object_id": "2018-003A",
        "meta_epoch": "2025-12-23T05:31:08.538816",
        "meta_mean_motion": 1.86232625,
        "meta_eccentricity": 0.0002961,
        "meta_inclination": 54.4874,
        "meta_ra_of_asc_node": 308.4506,
        "meta_arg_of_pericenter": 66.5422,
        "meta_mean_anomaly": 293.4915,
        "meta_ephemeris_type": 0,
        "meta_classification_type": "U",
        "meta_norad_cat_id": 43107,
        "meta_element_set_no": 999,
        "meta_rev_at_epoch": 5407,
        "meta_bstar": 0,
        "meta_mean_motion_dot": -5.5e-07,
        "meta_mean_motion_ddot": 0,
        "tle_line1": "1 43107U 18003A   25357.22995994 -.00000055  00000+0  00000+0 0  9997",
        "tle_line2": "2 43107  54.4874 308.4506 0002961  66.5422 293.4915  1.86232625 54072"
      },
      "geometry": {
        "type": "Point",
        "coordinates": [
          5.485822822731438,
          49.6465163168482
        ]
      }
    },
    {
      "type": "Feature",
      "properties": {
        "norad_id": 43108,
        "name": "BEIDOU-3 M8 (C28)",
        "group": "beidou",
        "lat": 51.413950020545656,
        "lon": 64.9572863352893,
        "alt_km": 21534.69481893096,
        "timestamp": "2025-12-24T09:46:31.269457+00:00",
        "meta_object_name": "BEIDOU-3 M8 (C28)",
        "meta_object_id": "2018-003B",
        "meta_epoch": "2025-12-23T17:05:08.286144",
        "meta_mean_motion": 1.86231111,
        "meta_eccentricity": 0.0004589,
        "meta_inclination": 54.4799,
        "meta_ra_of_asc_node": 308.4164,
        "meta_arg_of_pericenter": 279.1065,
        "meta_mean_anomaly": 80.8458,
        "meta_ephemeris_type": 0,
        "meta_classification_type": "U",
        "meta_norad_cat_id": 43108,
        "meta_element_set_no": 999,
        "meta_rev_at_epoch": 5409,
        "meta_bstar": 0,
        "meta_mean_motion_dot": -5.4e-07,
        "meta_mean_motion_ddot": 0,
        "tle_line1": "1 43108U 18003B   25357.71190146 -.00000054  00000+0  00000+0 0  9997",
        "tle_line2": "2 43108  54.4799 308.4164 0004589 279.1065  80.8458  1.86231111 54093"
      },
      "geometry": {
        "type": "Point",
        "coordinates": [
          64.9572863352893,
          51.413950020545656
        ]
      }
    }
  ]
}